#aV2022 10 27  0  0  0.00000000     288 DD+AD WGS84 FIT  NGA
## 2233 345600.00000000   300.00000000 59879 0.0000000000000
+   32     1  2  3  4  5  6  7  8  9 10 11 12 13 14 15 16 17
+         18 19 20 21 22 23 24 25 26 27 28 29 30 31 32  0  0
+          0  0  0  0  0  0  0  0  0  0  0  0  0  0  0  0  0
+          0  0  0  0  0  0  0  0  0  0  0  0  0  0  0  0  0
+          0  0  0  0  0  0  0  0  0  0  0  0  0  0  0  0  0
++         2  2  2  2  2  2  2  2  2  2  2  2  2  2  2  2  2
++         2  2  2  2  2  2  2  2  2  2  2  2  2  2  2  0  0
++         0  0  0  0  0  0  0  0  0  0  0  0  0  0  0  0  0
++         0  0  0  0  0  0  0  0  0  0  0  0  0  0  0  0  0
++         0  0  0  0  0  0  0  0  0  0  0  0  0  0  0  0  0
%c cc cc ccc ccc cccc cccc cccc cccc ccccc ccccc ccccc ccccc
%c cc cc ccc ccc cccc cccc cccc cccc ccccc ccccc ccccc ccccc
%f  0.0000000  0.000000000  0.00000000000  0.000000000000000
%f  0.0000000  0.000000000  0.00000000000  0.000000000000000
%i    0    0    0    0      0      0      0      0         0
%i    0    0    0    0      0      0      0      0         0
/*      NGA, ST. LOUIS,MO.                                  
/*   EPHEMERIS COMPUTED FROM 2 DAYS OF DATA                 
/*   EPOCHA v8 SMOOTHER                                     
/*   G2139 IERS2010 SATIGS SATAPC                           
*  2022 10 27  5 50  0.00000000
P  1  13755.068409  -4892.284302  21855.938778    261.103355                    
V  1   5007.781706  28010.814999   3402.125766     -0.059279                    
P  2 -13650.533426   6018.899367 -21365.173542   -640.614243                    
V  2  -7498.719527 -27601.056642  -2731.211297      0.016684                    
P  3  22344.140767 -10248.470254   9798.916011   -368.414692                    
V  3  -8210.089966   9854.133084  28768.249789     -0.033699                    
P  4  22690.624047  -1355.235368 -13822.067548    -96.870609                    
V  4  15497.811432   8418.880708  24512.544874      0.063459                    
P  5 -18980.041934   -253.831766 -18799.739513   -101.955867                    
V  5  16329.509163 -16899.782291 -16292.646391     -0.014644                    
P  6  -6404.678872 -25560.335636  -2915.106403    502.510610                    
V  6   1310.407521  -4063.915952  32125.447957      0.102400                    
P  7   7437.161324 -19946.732864 -15145.166747    294.449288                    
V  7   6142.590777  19437.925427 -22462.275972     -0.041494                    
P  8  25842.212108   5515.333464   4169.033384    -90.846733                    
V  8   4247.796276   3993.945684 -30947.267617     -0.019354                    
P  9  13631.048316 -10578.985778 -20284.327482   -277.517666                    
V  9  23926.620774   9125.630588  11321.256504      0.053683                    
P 10  -5800.238640  19800.900779  16697.749176     -9.262515                    
V 10 -17071.804328  12346.763312 -21067.844656     -0.016592                    
P 11 -12006.885171 -19383.724421 -13649.371657    -30.953073                    
V 11   -113.922831 -17441.761130  24824.615495     -0.050361                    
P 12 -22996.280985   8419.728224   9885.320330   -297.051176                    
V 12   8995.554159  -9656.411302  28487.437961     -0.044783                    
P 13 -22892.558300 -13535.988476  -2068.509152    413.565382                    
V 13   3232.704814  -1009.238635 -31667.153410      0.069565                    
P 14   8366.885525 -20220.518709  14981.198146    -90.605570                    
V 14  16420.915260  -9991.035384 -22778.532950      0.043671                    
P 15 -26240.202943  -2773.892053   3728.391564    -17.513108                    
V 15  -4403.874290  -4534.557413 -30413.266583      0.031588                    
P 16  15275.343262   6918.454815 -20980.249775   -526.656605                    
V 16 -20828.463799  15360.488012  -9783.743617     -0.003157                    
P 17   -424.335711 -16054.685368  21584.274241    672.527199                    
V 17  24414.138145   9911.973089   8084.719631      0.034638                    
P 18  -6490.556656  21283.467089 -14398.129481      0.180763                    
V 18  -4825.895749 -17767.328986 -24228.711404     -0.136364                    
P 19 -12047.348722 -17649.497330  15703.598592    229.242783                    
V 19  18884.746457   7431.088538  22254.405112      0.050577                    
P 20  -9864.552632 -12255.300867 -21402.922059    475.064937                    
V 20  17857.053836 -20580.618573   3324.482790     -0.030780                    
P 21  16491.513191   4723.249725  21062.496044    157.280753                    
V 21   6116.319122  24443.257325  -9837.754755     -0.007990                    
P 22  14328.619973  17564.565944  14406.488079    353.215015                    
V 22 -16711.003425  -5546.153665  23917.935089      0.070201                    
P 23 -14934.442471  20484.214333   7679.160302     -1.137532                    
V 23  -8923.426438   4713.077165 -30024.962145     -0.000589                    
P 24 -15853.299292    787.873194  20999.713759     83.914296                    
V 24  -6862.229950 -26631.843548  -3697.470470     -0.151107                    
P 25 -20020.940037  17214.339965     89.609361    386.537538                    
V 25  -1769.838305  -2757.214334  31814.314524      0.038273                    
P 26   6769.820380  14894.523188 -20964.103566    233.870481                    
V 26 -19788.306656  17743.168932   6571.302678      0.012563                    
P 27  22314.328999  13098.699341  -7081.231392    190.672899                    
V 27  -8779.310864   -973.750925 -30016.333794     -0.072647                    
P 28 -13189.118368 -11292.959405  20669.890218    323.371524                    
V 28   3286.895665 -24835.318180 -11514.238619     -0.055624                    
P 29 -15591.473347   7830.749452 -20092.120590   -562.748155                    
V 29 -22783.092687 -11138.457568  13286.540153     -0.028359                    
P 30   -265.397545 -25836.437039  -5452.089579   -537.106946                    
V 30   4834.192565   6400.680649 -30319.768453      0.001503                    
P 31   7135.557463  24953.128604  -4467.158823   -198.174924                    
V 31  -2405.045270   6014.075134  31244.850189     -0.012840                    
P 32   4712.271633  16735.985206  20280.954941   -276.352849                    
V 32 -24271.076700  -7467.429468  11694.233424     -0.122008                    
EOF
